ORBCOMM FM33            
1 25983U 99065D   25076.16000740  .00003481  00000+0  11472-2 0  9996
2 25983  45.0274  76.3957 0010495 312.9858  47.0111 14.39641090322876
ORBCOMM FM36            
1 25984U 99065E   25076.21206796  .00003440  00000+0  11792-2 0  9992
2 25984  45.0380 166.6653 0005070 215.1883 144.8632 14.37739551321776
ORBCOMM FM35            
1 25985U 99065F   25076.19657324  .00002955  00000+0  10396-2 0  9996
2 25985  45.0383 171.0566 0004850 273.7086  86.3208 14.36763662321748
ORBCOMM FM34            
1 25986U 99065G   25075.67802644  .00002738  00000+0  96595-3 0  9991
2 25986  45.0379 174.0050 0005772 236.7900 123.2395 14.36804703321596
ORBCOMM FM38            
1 33060U 08031A   25075.92236056  .00005699  00000+0  76003-3 0  9993
2 33060  48.4407  34.7850 0005682 358.1868   1.9026 14.80681919901069
ORBCOMM FM41            
1 33061U 08031B   25075.97629727  .00005624  00000+0  75718-3 0  9990
2 33061  48.4439  41.9967 0004977 343.2564  61.7403 14.80299183900574
ORBCOMM FM29            
1 33062U 08031C   25076.23029794  .00006425  00000+0  85958-3 0  9996
2 33062  48.4390  48.7005 0006774 344.0740  29.9846 14.80363459900903
ORBCOMM FM39            
1 33063U 08031D   25075.96756145  .00004631  00000+0  64787-3 0  9997
2 33063  48.4391  73.2324 0007866 317.4471  42.5834 14.78990035900147
