<?xml version="1.0" encoding="UTF-8"?>
<ndm xmlns:xsi="http://www.w3.org/2001/XMLSchema-instance" xsi:noNamespaceSchemaLocation="https://sanaregistry.org/r/ndmxml_unqualified/ndmxml-2.0.0-master-2.0.xsd">
<omm id="CCSDS_OMM_VERS" version="2.0">
<header><CREATION_DATE/><ORIGINATOR/></header><body><segment><metadata><OBJECT_NAME>ORBCOMM FM33</OBJECT_NAME><OBJECT_ID>1999-065D</OBJECT_ID><CENTER_NAME>EARTH</CENTER_NAME><REF_FRAME>TEME</REF_FRAME><TIME_SYSTEM>UTC</TIME_SYSTEM><MEAN_ELEMENT_THEORY>SGP4</MEAN_ELEMENT_THEORY></metadata><data><meanElements><EPOCH>2025-03-17T03:50:24.639360</EPOCH><MEAN_MOTION>14.39641090</MEAN_MOTION><ECCENTRICITY>.0010495</ECCENTRICITY><INCLINATION>45.0274</INCLINATION><RA_OF_ASC_NODE>76.3957</RA_OF_ASC_NODE><ARG_OF_PERICENTER>312.9858</ARG_OF_PERICENTER><MEAN_ANOMALY>47.0111</MEAN_ANOMALY></meanElements><tleParameters><EPHEMERIS_TYPE>0</EPHEMERIS_TYPE><CLASSIFICATION_TYPE>U</CLASSIFICATION_TYPE><NORAD_CAT_ID>25983</NORAD_CAT_ID><ELEMENT_SET_NO>999</ELEMENT_SET_NO><REV_AT_EPOCH>32287</REV_AT_EPOCH><BSTAR>.11472E-2</BSTAR><MEAN_MOTION_DOT>.3481E-4</MEAN_MOTION_DOT><MEAN_MOTION_DDOT>0</MEAN_MOTION_DDOT></tleParameters></data></segment></body></omm>
<omm id="CCSDS_OMM_VERS" version="2.0">
<header><CREATION_DATE/><ORIGINATOR/></header><body><segment><metadata><OBJECT_NAME>ORBCOMM FM36</OBJECT_NAME><OBJECT_ID>1999-065E</OBJECT_ID><CENTER_NAME>EARTH</CENTER_NAME><REF_FRAME>TEME</REF_FRAME><TIME_SYSTEM>UTC</TIME_SYSTEM><MEAN_ELEMENT_THEORY>SGP4</MEAN_ELEMENT_THEORY></metadata><data><meanElements><EPOCH>2025-03-17T05:05:22.671744</EPOCH><MEAN_MOTION>14.37739551</MEAN_MOTION><ECCENTRICITY>.000507</ECCENTRICITY><INCLINATION>45.0380</INCLINATION><RA_OF_ASC_NODE>166.6653</RA_OF_ASC_NODE><ARG_OF_PERICENTER>215.1883</ARG_OF_PERICENTER><MEAN_ANOMALY>144.8632</MEAN_ANOMALY></meanElements><tleParameters><EPHEMERIS_TYPE>0</EPHEMERIS_TYPE><CLASSIFICATION_TYPE>U</CLASSIFICATION_TYPE><NORAD_CAT_ID>25984</NORAD_CAT_ID><ELEMENT_SET_NO>999</ELEMENT_SET_NO><REV_AT_EPOCH>32177</REV_AT_EPOCH><BSTAR>.11792E-2</BSTAR><MEAN_MOTION_DOT>.344E-4</MEAN_MOTION_DOT><MEAN_MOTION_DDOT>0</MEAN_MOTION_DDOT></tleParameters></data></segment></body></omm>
<omm id="CCSDS_OMM_VERS" version="2.0">
<header><CREATION_DATE/><ORIGINATOR/></header><body><segment><metadata><OBJECT_NAME>ORBCOMM FM35</OBJECT_NAME><OBJECT_ID>1999-065F</OBJECT_ID><CENTER_NAME>EARTH</CENTER_NAME><REF_FRAME>TEME</REF_FRAME><TIME_SYSTEM>UTC</TIME_SYSTEM><MEAN_ELEMENT_THEORY>SGP4</MEAN_ELEMENT_THEORY></metadata><data><meanElements><EPOCH>2025-03-17T04:43:03.927936</EPOCH><MEAN_MOTION>14.36763662</MEAN_MOTION><ECCENTRICITY>.000485</ECCENTRICITY><INCLINATION>45.0383</INCLINATION><RA_OF_ASC_NODE>171.0566</RA_OF_ASC_NODE><ARG_OF_PERICENTER>273.7086</ARG_OF_PERICENTER><MEAN_ANOMALY>86.3208</MEAN_ANOMALY></meanElements><tleParameters><EPHEMERIS_TYPE>0</EPHEMERIS_TYPE><CLASSIFICATION_TYPE>U</CLASSIFICATION_TYPE><NORAD_CAT_ID>25985</NORAD_CAT_ID><ELEMENT_SET_NO>999</ELEMENT_SET_NO><REV_AT_EPOCH>32174</REV_AT_EPOCH><BSTAR>.10396E-2</BSTAR><MEAN_MOTION_DOT>.2955E-4</MEAN_MOTION_DOT><MEAN_MOTION_DDOT>0</MEAN_MOTION_DDOT></tleParameters></data></segment></body></omm>
<omm id="CCSDS_OMM_VERS" version="2.0">
<header><CREATION_DATE/><ORIGINATOR/></header><body><segment><metadata><OBJECT_NAME>ORBCOMM FM34</OBJECT_NAME><OBJECT_ID>1999-065G</OBJECT_ID><CENTER_NAME>EARTH</CENTER_NAME><REF_FRAME>TEME</REF_FRAME><TIME_SYSTEM>UTC</TIME_SYSTEM><MEAN_ELEMENT_THEORY>SGP4</MEAN_ELEMENT_THEORY></metadata><data><meanElements><EPOCH>2025-03-16T16:16:21.484416</EPOCH><MEAN_MOTION>14.36804703</MEAN_MOTION><ECCENTRICITY>.0005772</ECCENTRICITY><INCLINATION>45.0379</INCLINATION><RA_OF_ASC_NODE>174.0050</RA_OF_ASC_NODE><ARG_OF_PERICENTER>236.7900</ARG_OF_PERICENTER><MEAN_ANOMALY>123.2395</MEAN_ANOMALY></meanElements><tleParameters><EPHEMERIS_TYPE>0</EPHEMERIS_TYPE><CLASSIFICATION_TYPE>U</CLASSIFICATION_TYPE><NORAD_CAT_ID>25986</NORAD_CAT_ID><ELEMENT_SET_NO>999</ELEMENT_SET_NO><REV_AT_EPOCH>32159</REV_AT_EPOCH><BSTAR>.96595E-3</BSTAR><MEAN_MOTION_DOT>.2738E-4</MEAN_MOTION_DOT><MEAN_MOTION_DDOT>0</MEAN_MOTION_DDOT></tleParameters></data></segment></body></omm>
<omm id="CCSDS_OMM_VERS" version="2.0">
<header><CREATION_DATE/><ORIGINATOR/></header><body><segment><metadata><OBJECT_NAME>ORBCOMM FM38</OBJECT_NAME><OBJECT_ID>2008-031A</OBJECT_ID><CENTER_NAME>EARTH</CENTER_NAME><REF_FRAME>TEME</REF_FRAME><TIME_SYSTEM>UTC</TIME_SYSTEM><MEAN_ELEMENT_THEORY>SGP4</MEAN_ELEMENT_THEORY></metadata><data><meanElements><EPOCH>2025-03-16T22:08:11.952384</EPOCH><MEAN_MOTION>14.80681919</MEAN_MOTION><ECCENTRICITY>.0005682</ECCENTRICITY><INCLINATION>48.4407</INCLINATION><RA_OF_ASC_NODE>34.7850</RA_OF_ASC_NODE><ARG_OF_PERICENTER>358.1868</ARG_OF_PERICENTER><MEAN_ANOMALY>1.9026</MEAN_ANOMALY></meanElements><tleParameters><EPHEMERIS_TYPE>0</EPHEMERIS_TYPE><CLASSIFICATION_TYPE>U</CLASSIFICATION_TYPE><NORAD_CAT_ID>33060</NORAD_CAT_ID><ELEMENT_SET_NO>999</ELEMENT_SET_NO><REV_AT_EPOCH>90106</REV_AT_EPOCH><BSTAR>.76003E-3</BSTAR><MEAN_MOTION_DOT>.5699E-4</MEAN_MOTION_DOT><MEAN_MOTION_DDOT>0</MEAN_MOTION_DDOT></tleParameters></data></segment></body></omm>
<omm id="CCSDS_OMM_VERS" version="2.0">
<header><CREATION_DATE/><ORIGINATOR/></header><body><segment><metadata><OBJECT_NAME>ORBCOMM FM41</OBJECT_NAME><OBJECT_ID>2008-031B</OBJECT_ID><CENTER_NAME>EARTH</CENTER_NAME><REF_FRAME>TEME</REF_FRAME><TIME_SYSTEM>UTC</TIME_SYSTEM><MEAN_ELEMENT_THEORY>SGP4</MEAN_ELEMENT_THEORY></metadata><data><meanElements><EPOCH>2025-03-16T23:25:52.084128</EPOCH><MEAN_MOTION>14.80299183</MEAN_MOTION><ECCENTRICITY>.0004977</ECCENTRICITY><INCLINATION>48.4439</INCLINATION><RA_OF_ASC_NODE>41.9967</RA_OF_ASC_NODE><ARG_OF_PERICENTER>343.2564</ARG_OF_PERICENTER><MEAN_ANOMALY>61.7403</MEAN_ANOMALY></meanElements><tleParameters><EPHEMERIS_TYPE>0</EPHEMERIS_TYPE><CLASSIFICATION_TYPE>U</CLASSIFICATION_TYPE><NORAD_CAT_ID>33061</NORAD_CAT_ID><ELEMENT_SET_NO>999</ELEMENT_SET_NO><REV_AT_EPOCH>90057</REV_AT_EPOCH><BSTAR>.75718E-3</BSTAR><MEAN_MOTION_DOT>.5624E-4</MEAN_MOTION_DOT><MEAN_MOTION_DDOT>0</MEAN_MOTION_DDOT></tleParameters></data></segment></body></omm>
<omm id="CCSDS_OMM_VERS" version="2.0">
<header><CREATION_DATE/><ORIGINATOR/></header><body><segment><metadata><OBJECT_NAME>ORBCOMM FM29</OBJECT_NAME><OBJECT_ID>2008-031C</OBJECT_ID><CENTER_NAME>EARTH</CENTER_NAME><REF_FRAME>TEME</REF_FRAME><TIME_SYSTEM>UTC</TIME_SYSTEM><MEAN_ELEMENT_THEORY>SGP4</MEAN_ELEMENT_THEORY></metadata><data><meanElements><EPOCH>2025-03-17T05:31:37.742016</EPOCH><MEAN_MOTION>14.80363459</MEAN_MOTION><ECCENTRICITY>.0006774</ECCENTRICITY><INCLINATION>48.4390</INCLINATION><RA_OF_ASC_NODE>48.7005</RA_OF_ASC_NODE><ARG_OF_PERICENTER>344.0740</ARG_OF_PERICENTER><MEAN_ANOMALY>29.9846</MEAN_ANOMALY></meanElements><tleParameters><EPHEMERIS_TYPE>0</EPHEMERIS_TYPE><CLASSIFICATION_TYPE>U</CLASSIFICATION_TYPE><NORAD_CAT_ID>33062</NORAD_CAT_ID><ELEMENT_SET_NO>999</ELEMENT_SET_NO><REV_AT_EPOCH>90090</REV_AT_EPOCH><BSTAR>.85958E-3</BSTAR><MEAN_MOTION_DOT>.6425E-4</MEAN_MOTION_DOT><MEAN_MOTION_DDOT>0</MEAN_MOTION_DDOT></tleParameters></data></segment></body></omm>
<omm id="CCSDS_OMM_VERS" version="2.0">
<header><CREATION_DATE/><ORIGINATOR/></header><body><segment><metadata><OBJECT_NAME>ORBCOMM FM39</OBJECT_NAME><OBJECT_ID>2008-031D</OBJECT_ID><CENTER_NAME>EARTH</CENTER_NAME><REF_FRAME>TEME</REF_FRAME><TIME_SYSTEM>UTC</TIME_SYSTEM><MEAN_ELEMENT_THEORY>SGP4</MEAN_ELEMENT_THEORY></metadata><data><meanElements><EPOCH>2025-03-16T23:13:17.309280</EPOCH><MEAN_MOTION>14.78990035</MEAN_MOTION><ECCENTRICITY>.0007866</ECCENTRICITY><INCLINATION>48.4391</INCLINATION><RA_OF_ASC_NODE>73.2324</RA_OF_ASC_NODE><ARG_OF_PERICENTER>317.4471</ARG_OF_PERICENTER><MEAN_ANOMALY>42.5834</MEAN_ANOMALY></meanElements><tleParameters><EPHEMERIS_TYPE>0</EPHEMERIS_TYPE><CLASSIFICATION_TYPE>U</CLASSIFICATION_TYPE><NORAD_CAT_ID>33063</NORAD_CAT_ID><ELEMENT_SET_NO>999</ELEMENT_SET_NO><REV_AT_EPOCH>90014</REV_AT_EPOCH><BSTAR>.64787E-3</BSTAR><MEAN_MOTION_DOT>.4631E-4</MEAN_MOTION_DOT><MEAN_MOTION_DDOT>0</MEAN_MOTION_DDOT></tleParameters></data></segment></body></omm>

</ndm>
